C/2015 XY1 (Lemmon),h,04/26.4382/2018,148.8522,281.5999,196.1659,1.001023,7.922806,2000,5.5,4.0
# From MPC 97498
P/2015 X3 (PANSTARRS),e,24.3978,77.2845,306.7027,5.006748,0.0879773,0.43959630,207.4311,01/23.0/2022,2000,g 15.0,4.0
# From MPC119995
C/2015 X5 (PANSTARRS),h,12/28.1194/2017,124.3109,122.3323,27.5850,1.000322,6.794720,2000,7.5,4.0
# From MPC115881
P/2015 X6 (PANSTARRS),e,4.5645,106.9417,329.8242,2.753279,0.2157390,0.17279730,99.8782,01/23.0/2022,2000,g 16.0,4.0
# From MPEC 2021-P47
C/2016 A1 (PANSTARRS),h,11/21.5730/2017,121.2075,128.1956,10.1507,1.000110,5.318443,2000,6.0,4.0
# From MPC100282
P/2016 A2 (Christensen),e,26.4037,291.6175,141.3493,4.752915,0.0951183,0.27060545,229.6682,01/23.0/2022,2000,g 11.5,4.0
# From MPC115881
P/2016 A3 (PANSTARRS),e,8.5102,187.2379,340.9940,7.885200,0.0445128,0.38628562,77.0768,01/23.0/2022,2000,g 10.0,4.0
# From MPC102098
P/2016 A7 (PANSTARRS),e,16.6069,221.4968,352.5863,5.033853,0.0872677,0.56454301,188.6700,01/23.0/2022,2000,g 16.0,4.0
# From MPC109143
P/2016 BA14 (PANSTARRS),e,18.8942,180.5232,351.8994,3.025013,0.1873325,0.66513009,41.1534,01/23.0/2022,2000,g 21.0,4.0
# From MPC110494
C/2016 E1 (PANSTARRS),h,06/04.0496/2017,131.8733,233.1186,47.4631,1.006294,8.175100,2000,6.5,4.0
# From MPEC 2021-P47
P/2016 G1 (PANSTARRS),e,10.9714,204.0227,111.1189,2.582349,0.2375099,0.21099425,72.9434,01/23.0/2022,2000,g 14.0,4.0
# From MPEC 2017-D91
P/2016 J1-A (PANSTARRS),e,14.3287,199.8112,46.9845,3.172174,0.1744491,0.22775964,354.9949,01/23.0/2022,2000,g 16.5,4.0
# From MPEC 2017-A77
P/2016 J1-B (PANSTARRS),e,14.3314,199.8160,46.8755,3.171803,0.1744796,0.22761015,355.1319,01/23.0/2022,2000,g 17.0,4.0
# From MPC119995
C/2016 M1 (PANSTARRS),e,90.9418,92.2346,209.9306,47108,0.0000001,0.99995300,0.0000,08/10.5363/2018,2000,g  5.0,4.0
# From MPEC 2021-N06
C/2016 N4 (MASTER),e,72.6482,353.9905,55.9502,4332,0.0000035,0.99926200,0.0000,09/17.1976/2017,2000,g  8.5,4.0
# From MPEC 2021-P47
C/2016 N6 (PANSTARRS),e,105.8452,298.9660,162.6462,1136,0.0000257,0.99765677,0.0000,07/17.7885/2018,2000,g  7.0,4.0
# From MPC102099
P/2016 P1 (PANSTARRS),e,24.4558,319.5657,270.1425,3.193925,0.1726701,0.28913766,39.1259,01/23.0/2022,2000,g 15.0,4.0
# From MPEC 2021-W31
C/2016 Q2 (PANSTARRS),h,05/12.0993/2021,109.3879,322.2981,84.5427,1.001696,7.081914,2000,6.0,4.0
# From MPC102955
C/2016 Q4 (Kowalski),e,7.2519,271.2962,99.5424,16.98111,0.0140849,0.58247043,20.4844,01/23.0/2022,2000,g  7.0,4.0
# From MPEC 2021-N06
C/2016 R2 (PANSTARRS),e,58.2724,80.5390,33.1188,482.5023,0.0000930,0.99461239,0.0000,05/08.9981/2018,2000,g  7.0,4.0
# From MPC109144
P/2016 R4 (Gibbs),e,10.8773,168.2624,174.0800,5.332005,0.0800513,0.47640263,160.8833,01/23.0/2022,2000,g 12.5,4.0
# From MPC105543
P/2016 S1 (PANSTARRS),e,94.7061,227.6004,273.2760,8.277704,0.0413846,0.71002456,73.4146,01/23.0/2022,2000,g 12.0,4.0
# From MPC105238
C/2016 T1 (Matheny),e,129.8511,56.4119,137.5355,126.3738,0.0006938,0.98175842,0.0000,02/01.7751/2017,2000,g 14.5,4.0
# From MPC110082
C/2016 T3 (PANSTARRS),e,22.6984,271.6920,194.5909,129.4218,0.0006694,0.97958498,0.0000,09/06.5685/2017,2000,g 10.5,4.0
# From MPC106345
C/2016 VZ18 (PANSTARRS),e,24.0074,98.9302,36.3467,157.7122,0.0004976,0.99421347,0.0000,03/04.9202/2017,2000,g 19.5,4.0
# From MPC106345
P/2016 WM48 (Lemmon),e,117.5153,59.9153,36.1076,8.166114,0.0422358,0.78359927,75.8017,01/23.0/2022,2000,g 15.0,4.0
# From MPEC 2021-P47
C/2016 X1 (Lemmon),e,26.4538,256.3772,224.4770,1262,0.0000220,0.99401104,0.0000,04/27.9406/2019,2000,g  6.0,4.0
# From MPC108594
C/2017 A1 (PANSTARRS),e,49.8082,121.0226,1.9496,75.15031,0.0015129,0.96958160,2.5916,01/23.0/2022,2000,g 13.0,4.0
# From MPC108594
C/2017 A3 (Elenin),e,98.5070,97.8593,303.9351,43.35782,0.0034523,0.91141020,6.2762,01/23.0/2022,2000,g  9.5,4.0
# From MPC114598
C/2017 AB5 (PANSTARRS),e,32.4538,42.6134,78.2976,2299,0.0000089,0.99599415,0.0000,02/14.5695/2018,2000,g  5.5,4.0
# From MPEC 2022-A21
C/2017 B3 (LINEAR),h,02/02.1952/2019,54.1615,2.1767,284.8154,1.000985,3.925853,2000,6.0,4.0
# From MPC103847
P/2017 B4 (PANSTARRS),e,20.0584,121.4578,11.0197,4.410520,0.1064068,0.36495152,359.9130,01/05.0/2017,2000,g 14.5,4.0
# From MPC104793
P/2017 D1 (Fuls),e,20.7597,82.1819,7.9799,4.828970,0.0928800,0.43645082,189.4818,01/23.0/2022,2000,g 14.0,4.0
# From MPC112391
C/2017 D2 (Barros),e,31.2579,330.9490,334.6195,10642,0.0000009,0.99976541,0.0000,07/14.7274/2017,2000,g 11.0,4.0
# From MPC114598
C/2017 D3 (ATLAS),h,04/27.4570/2017,125.5906,186.7122,340.8195,1.002108,4.966847,2000,8.0,4.0
# From MPC110495
P/2017 D4 (PANSTARRS),e,10.5378,264.9381,212.1995,7.555180,0.0474610,0.62848196,93.3230,01/23.0/2022,2000,g 13.0,4.0
# From MPC106346
C/2017 E1 (Borisov),h,04/10.4659/2017,14.5717,142.5681,152.7773,1.003234,0.906314,2000,14.0,4.0
# From MPEC 2021-P47
C/2017 E3 (PANSTARRS),h,06/07.3991/2017,70.6581,220.7864,334.4715,1.006001,5.936758,2000,6.5,4.0
# From MPC105239
C/2017 E4 (Lovejoy),h,04/23.3972/2017,87.9872,222.8182,87.0833,1.001486,0.491723,2000,17.0,4.0
# From MPC111769
C/2017 F1 (Lemmon),h,11/29.0394/2017,146.4607,158.7885,64.7264,1.002221,4.497281,2000,10.5,4.0
# From MPC114598
C/2017 F2 (PANSTARRS),h,11/26.2929/2017,42.5449,38.6927,134.9589,1.002402,6.928536,2000,7.5,4.0
# From MPC104794
P/2017 G1 (PANSTARRS),e,4.7785,249.6455,224.4416,7.280467,0.0501724,0.65313708,105.2203,01/23.0/2022,2000,g 13.5,4.0
# From MPC108595
P/2017 G2 (PANSTARRS),e,47.9516,79.8040,105.4914,8.057914,0.0430894,0.64767009,72.7292,01/23.0/2022,2000,g 13.0,4.0
# From MPEC 2021-P47
C/2017 G3 (PANSTARRS),e,159.0365,279.4587,73.0383,312.9766,0.0001780,0.99174763,0.0000,04/16.3627/2017,2000,g 14.0,4.0
# From MPC115882
C/2017 K1 (PANSTARRS),h,03/17.9571/2018,154.0200,225.7050,4.4350,1.003283,7.287676,2000,7.0,4.0
# From MPEC 2022-A21
C/2017 K2 (PANSTARRS),h,12/19.6918/2022,87.5589,88.2367,236.1933,1.000701,1.797115,2000,1.5,4.0
# From MPEC 2021-N06
P/2017 K3 (Gasparovic),e,4.2730,354.2878,253.4452,5.583821,0.0746976,0.57970915,126.9185,01/23.0/2022,2000,g 14.5,4.0
# From MPC114598
C/2017 K4 (ATLAS),e,16.6733,298.8895,15.3108,28.64992,0.0064272,0.90727405,9.4834,01/23.0/2022,2000,g 10.0,4.0
# From MPEC 2021-P47
C/2017 K5 (PANSTARRS),h,03/27.1950/2020,82.2372,102.3739,172.0475,1.005586,7.682507,2000,5.0,4.0
# From MPC114599
C/2017 K6 (Jacques),e,57.2316,84.9631,303.7698,1150,0.0000253,0.99826499,0.0000,01/03.7932/2018,2000,g 11.0,4.0
# From MPEC 2021-P47
C/2017 M3 (PANSTARRS),e,77.5878,7.0369,110.2838,166.8674,0.0004572,0.97212074,0.0000,04/28.3095/2017,2000,g 10.5,4.0
# From MPEC 2021-Y10
C/2017 M4 (ATLAS),h,01/17.9580/2019,105.6473,65.9201,167.6165,1.001395,3.253504,2000,6.0,4.0
# From MPC118841
C/2017 M5 (TOTAS),h,06/04.4726/2018,15.8686,216.2886,92.8236,1.005442,5.999715,2000,6.5,4.0
# From MPC114599
C/2017 O1 (ASASSN),e,39.9607,25.7276,20.8367,367.1283,0.0001401,0.99593668,0.0000,10/15.4558/2017,2000,g 11.0,4.0
# From MPC114599
P/2017 P1 (PANSTARRS),e,7.6921,221.3833,122.5236,7.905767,0.0443392,0.31102392,58.1553,01/23.0/2022,2000,g 10.0,4.0
# From MPC114599
C/2017 P2 (PANSTARRS),e,50.0484,165.4580,132.4641,2488,0.0000079,0.99900667,0.0000,12/06.3241/2017,2000,g 10.0,4.0
# From MPC114599
P/2017 R1 (PANSTARRS),e,2.5745,143.6168,178.6998,4.135057,0.1172147,0.19564935,204.8297,01/23.0/2022,2000,g 13.5,4.0
# From MPC108595
C/2017 S2 (PANSTARRS),e,12.6715,62.3501,306.0619,20.61472,0.0105302,0.82474586,16.9173,01/23.0/2022,2000,g 13.0,4.0
# From MPC114599
C/2017 S3 (PANSTARRS),h,08/16.3415/2018,99.2031,171.3027,255.8064,1.000068,0.206671,2000,11.0,4.0
# From MPC109591
C/2017 S6 (Catalina),h,02/26.1657/2018,152.8669,131.0651,134.9169,1.000787,1.548621,2000,12.5,4.0
# From MPC114599
C/2017 S7 (Lemmon),e,124.2248,262.7450,187.5236,8145,0.0000013,0.99906607,0.0000,05/24.0291/2017,2000,g  7.0,4.0
# From MPC114599
P/2017 S8 (PANSTARRS),e,29.8535,191.5273,254.7875,2.780553,0.2125726,0.39120195,309.7795,01/23.0/2022,2000,g 16.0,4.0
# From MPC107050
P/2017 S9 (PANSTARRS),e,14.1440,146.2227,237.6837,3.153916,0.1759661,0.30541481,289.5145,01/23.0/2022,2000,g 17.0,4.0
# From MPC114600
C/2017 T1 (Heinze),e,96.8760,102.4347,96.9970,11945,0.0000008,0.99995103,0.0000,02/20.8171/2018,2000,g 14.5,4.0
# From MPEC 2021-Y10
C/2017 T2 (PANSTARRS),e,57.2349,64.3833,92.9813,2008,0.0000110,0.99919569,0.0000,05/04.8412/2020,2000,g  5.0,4.0
# From MPC114600
C/2017 T3 (ATLAS),e,88.1634,230.1565,246.8222,1181,0.0000243,0.99930180,0.0000,07/18.8902/2018,2000,g 10.0,4.0
# From MPC115882
P/2017 TW13 (Lemmon),e,44.8497,322.2915,119.9341,7.138714,0.0516742,0.70978341,67.7886,01/23.0/2022,2000,g 15.0,2.0
# From MPC114600
C/2017 U2 (Fuls),e,95.3881,149.7083,147.8537,2780,0.0000067,0.99758500,0.0000,08/28.1851/2017,2000,g  9.0,4.0
# From MPC114600
P/2017 U3 (PANSTARRS),e,15.9187,165.1108,296.5466,4.927396,0.0901110,0.09905887,91.4814,01/23.0/2022,2000,g 11.0,4.0
# From MPEC 2021-P47
C/2017 U4 (PANSTARRS),h,09/22.5031/2018,158.2082,245.9278,158.9879,1.000938,7.720773,2000,7.0,4.0
# From MPC114600
C/2017 U5 (PANSTARRS),e,18.9784,163.0863,261.9973,16.88819,0.0142013,0.74436848,21.2466,01/23.0/2022,2000,g 12.0,4.0
# From MPEC 2021-TD0
C/2017 U7 (PANSTARRS),h,09/14.5297/2019,142.5974,276.2489,326.3574,1.000731,6.425389,2000,8.3,2.0
# From MPC114600
C/2017 W2 (Leonard),e,98.2013,312.8325,168.9416,13.63053,0.0195855,0.71036802,30.2456,01/23.0/2022,2000,g 11.0,4.0
# From MPC114601
P/2017 W3 (Gibbs),e,18.1666,210.2470,327.8436,7.837877,0.0449166,0.50672548,64.0100,01/23.0/2022,2000,g 10.5,4.0
# From MPEC 2021-R75
C/2017 X1 (PANSTARRS),e,31.3170,251.1375,283.2316,31.15735,0.0056671,0.85016607,7.4719,01/23.0/2022,2000,g 10.0,4.0
# From MPC117069
C/2017 Y1 (PANSTARRS),e,55.2605,307.5139,134.2578,1765,0.0000133,0.99790073,0.0000,08/31.4287/2017,2000,g 11.5,4.0
# From MPEC 2021-W31
C/2017 Y2 (PANSTARRS),h,11/04.9184/2020,128.4195,65.9963,147.9163,1.000944,4.632728,2000,15.0,4.0
# From MPC111770
P/2017 Y3 (Leonard),e,27.5575,153.8429,67.6087,9.835378,0.0319534,0.86977043,46.1147,01/23.0/2022,2000,g 16.5,4.0
# From MPC114601
